{
  "type": "FeatureCollection",
  "features": [
    {
      "type": "Feature",
      "properties": {
        "norad_id": 34556,
        "name": "COSMOS 2251 DEB",
        "group": "cosmos-2251-debris",
        "lat": 71.98527396006088,
        "lon": -125.909446064271,
        "alt_km": 627.4163730103019,
        "timestamp": "2025-12-17T07:00:47.303994+00:00",
        "meta_object_name": "COSMOS 2251 DEB",
        "meta_object_id": "1993-036US",
        "meta_epoch": "2025-12-16T19:45:43.582176",
        "meta_mean_motion": 14.77934389,
        "meta_eccentricity": 0.00072568,
        "meta_inclination": 74.0153,
        "meta_ra_of_asc_node": 116.8287,
        "meta_arg_of_pericenter": 176.8473,
        "meta_mean_anomaly": 308.405,
        "meta_ephemeris_type": 0,
        "meta_classification_type": "U",
        "meta_norad_cat_id": 34556,
        "meta_element_set_no": 999,
        "meta_rev_at_epoch": 88389,
        "meta_bstar": 0.0016502155,
        "meta_mean_motion_dot": 0.00011883,
        "meta_mean_motion_ddot": 0,
        "tle_line1": "1 34556U 93036US  25350.82342109  .00011883  00000+0  16502-2 0  9994",
        "tle_line2": "2 34556  74.0153 116.8287 0007256 176.8473 308.4050 14.77934389883895"
      },
      "geometry": {
        "type": "Point",
        "coordinates": [
          -125.909446064271,
          71.98527396006088
        ]
      }
    },
    {
      "type": "Feature",
      "properties": {
        "norad_id": 34560,
        "name": "COSMOS 2251 DEB",
        "group": "cosmos-2251-debris",
        "lat": -70.70026913686739,
        "lon": 8.202629291005694,
        "alt_km": 653.5656754124057,
        "timestamp": "2025-12-17T07:00:47.304005+00:00",
        "meta_object_name": "COSMOS 2251 DEB",
        "meta_object_id": "1993-036UW",
        "meta_epoch": "2025-12-16T20:36:13.867776",
        "meta_mean_motion": 14.72247709,
        "meta_eccentricity": 0.00143485,
        "meta_inclination": 74.0156,
        "meta_ra_of_asc_node": 134.1089,
        "meta_arg_of_pericenter": 215.7701,
        "meta_mean_anomaly": 265.3357,
        "meta_ephemeris_type": 0,
        "meta_classification_type": "U",
        "meta_norad_cat_id": 34560,
        "meta_element_set_no": 999,
        "meta_rev_at_epoch": 88312,
        "meta_bstar": 0.0016577114,
        "meta_mean_motion_dot": 0.00010467,
        "meta_mean_motion_ddot": 0,
        "tle_line1": "1 34560U 93036UW  25350.85849384  .00010467  00000+0  16577-2 0  9998",
        "tle_line2": "2 34560  74.0156 134.1089 0014348 215.7701 265.3357 14.72247709883128"
      },
      "geometry": {
        "type": "Point",
        "coordinates": [
          8.202629291005694,
          -70.70026913686739
        ]
      }
    },
    {
      "type": "Feature",
      "properties": {
        "norad_id": 34563,
        "name": "COSMOS 2251 DEB",
        "group": "cosmos-2251-debris",
        "lat": -35.02965623206282,
        "lon": -176.3650981846314,
        "alt_km": 734.7786740705042,
        "timestamp": "2025-12-17T07:00:47.304015+00:00",
        "meta_object_name": "COSMOS 2251 DEB",
        "meta_object_id": "1993-036UZ",
        "meta_epoch": "2025-12-16T23:27:31.913280",
        "meta_mean_motion": 14.46523914,
        "meta_eccentricity": 0.00138836,
        "meta_inclination": 74.0376,
        "meta_ra_of_asc_node": 195.7965,
        "meta_arg_of_pericenter": 289.5842,
        "meta_mean_anomaly": 195.3147,
        "meta_ephemeris_type": 0,
        "meta_classification_type": "U",
        "meta_norad_cat_id": 34563,
        "meta_element_set_no": 999,
        "meta_rev_at_epoch": 88258,
        "meta_bstar": 0.00034684826,
        "meta_mean_motion_dot": 1.224e-05,
        "meta_mean_motion_ddot": 0,
        "tle_line1": "1 34563U 93036UZ  25350.97745270  .00001224  00000+0  34685-3 0  9995",
        "tle_line2": "2 34563  74.0376 195.7965 0013883 289.5842 195.3147 14.46523914882583"
      },
      "geometry": {
        "type": "Point",
        "coordinates": [
          -176.3650981846314,
          -35.02965623206282
        ]
      }
    },
    {
      "type": "Feature",
      "properties": {
        "norad_id": 34564,
        "name": "COSMOS 2251 DEB",
        "group": "cosmos-2251-debris",
        "lat": 6.612666157336628,
        "lon": -128.50823671937403,
        "alt_km": 746.58078527214,
        "timestamp": "2025-12-17T07:00:47.304026+00:00",
        "meta_object_name": "COSMOS 2251 DEB",
        "meta_object_id": "1993-036VA",
        "meta_epoch": "2025-12-16T17:57:26.558784",
        "meta_mean_motion": 14.40697599,
        "meta_eccentricity": 0.00191701,
        "meta_inclination": 74.0319,
        "meta_ra_of_asc_node": 230.5957,
        "meta_arg_of_pericenter": 333.9583,
        "meta_mean_anomaly": 92.6391,
        "meta_ephemeris_type": 0,
        "meta_classification_type": "U",
        "meta_norad_cat_id": 34564,
        "meta_element_set_no": 999,
        "meta_rev_at_epoch": 88064,
        "meta_bstar": 0.00023247331,
        "meta_mean_motion_dot": 7.18e-06,
        "meta_mean_motion_ddot": 0,
        "tle_line1": "1 34564U 93036VA  25350.74822406  .00000718  00000+0  23247-3 0  9997",
        "tle_line2": "2 34564  74.0319 230.5957 0019170 333.9583  92.6391 14.40697599880641"
      },
      "geometry": {
        "type": "Point",
        "coordinates": [
          -128.50823671937403,
          6.612666157336628
        ]
      }
    },
    {
      "type": "Feature",
      "properties": {
        "norad_id": 34567,
        "name": "COSMOS 2251 DEB",
        "group": "cosmos-2251-debris",
        "lat": 39.038375192740794,
        "lon": -44.83095909205104,
        "alt_km": 801.4098872666427,
        "timestamp": "2025-12-17T07:00:47.304036+00:00",
        "meta_object_name": "COSMOS 2251 DEB",
        "meta_object_id": "1993-036VD",
        "meta_epoch": "2025-12-16T19:05:42.076896",
        "meta_mean_motion": 14.24021188,
        "meta_eccentricity": 0.00743349,
        "meta_inclination": 74.0403,
        "meta_ra_of_asc_node": 149.4804,
        "meta_arg_of_pericenter": 222.85,
        "meta_mean_anomaly": 252.249,
        "meta_ephemeris_type": 0,
        "meta_classification_type": "U",
        "meta_norad_cat_id": 34567,
        "meta_element_set_no": 999,
        "meta_rev_at_epoch": 87182,
        "meta_bstar": 0.00022407318,
        "meta_mean_motion_dot": 5.04e-06,
        "meta_mean_motion_ddot": 0,
        "tle_line1": "1 34567U 93036VD  25350.79562589  .00000504  00000+0  22407-3 0  9998",
        "tle_line2": "2 34567  74.0403 149.4804 0074334 222.8500 252.2490 14.24021188871826"
      },
      "geometry": {
        "type": "Point",
        "coordinates": [
          -44.83095909205104,
          39.038375192740794
        ]
      }
    },
    {
      "type": "Feature",
      "properties": {
        "norad_id": 34569,
        "name": "COSMOS 2251 DEB",
        "group": "cosmos-2251-debris",
        "lat": -41.35144530007793,
        "lon": 175.26688962503516,
        "alt_km": 758.5607508005996,
        "timestamp": "2025-12-17T07:00:47.304046+00:00",
        "meta_object_name": "COSMOS 2251 DEB",
        "meta_object_id": "1993-036VF",
        "meta_epoch": "2025-12-16T14:36:52.803936",
        "meta_mean_motion": 14.24762633,
        "meta_eccentricity": 0.0157481,
        "meta_inclination": 73.9893,
        "meta_ra_of_asc_node": 191.1399,
        "meta_arg_of_pericenter": 18.6492,
        "meta_mean_anomaly": 36.3795,
        "meta_ephemeris_type": 0,
        "meta_classification_type": "U",
        "meta_norad_cat_id": 34569,
        "meta_element_set_no": 999,
        "meta_rev_at_epoch": 87023,
        "meta_bstar": 0.00044065461,
        "meta_mean_motion_dot": 1.142e-05,
        "meta_mean_motion_ddot": 0,
        "tle_line1": "1 34569U 93036VF  25350.60894449  .00001142  00000+0  44065-3 0  9996",
        "tle_line2": "2 34569  73.9893 191.1399 0157481  18.6492  36.3795 14.24762633870238"
      },
      "geometry": {
        "type": "Point",
        "coordinates": [
          175.26688962503516,
          -41.35144530007793
        ]
      }
    },
    {
      "type": "Feature",
      "properties": {
        "norad_id": 34570,
        "name": "COSMOS 2251 DEB",
        "group": "cosmos-2251-debris",
        "lat": -21.754960200673974,
        "lon": 36.95942868423374,
        "alt_km": 945.9859013781515,
        "timestamp": "2025-12-17T07:00:47.304057+00:00",
        "meta_object_name": "COSMOS 2251 DEB",
        "meta_object_id": "1993-036VG",
        "meta_epoch": "2025-12-16T16:39:23.543136",
        "meta_mean_motion": 13.99826345,
        "meta_eccentricity": 0.01902668,
        "meta_inclination": 73.9568,
        "meta_ra_of_asc_node": 211.4059,
        "meta_arg_of_pericenter": 93.0115,
        "meta_mean_anomaly": 334.1693,
        "meta_ephemeris_type": 0,
        "meta_classification_type": "U",
        "meta_norad_cat_id": 34570,
        "meta_element_set_no": 999,
        "meta_rev_at_epoch": 85656,
        "meta_bstar": 0.00044390279,
        "meta_mean_motion_dot": 7.38e-06,
        "meta_mean_motion_ddot": 0,
        "tle_line1": "1 34570U 93036VG  25350.69402249  .00000738  00000+0  44390-3 0  9991",
        "tle_line2": "2 34570  73.9568 211.4059 0190266  93.0115 334.1693 13.99826345856563"
      },
      "geometry": {
        "type": "Point",
        "coordinates": [
          36.95942868423374,
          -21.754960200673974
        ]
      }
    }
  ]
}